[Satellite]
VERSION=1.1
NAME=GOES 13
NICKNAME=GOES 13
TLE1=1 29155U 06018A   20157.56987997  .00000032  00000-0  00000-0 0  9997
TLE2=2 29155   0.1706 261.7895 0005218 283.9984 335.1107  1.00273836 21277
STATUS=0
